{"type": "FeatureCollection", "features": [ {"type": "Feature", "properties": {"norad_id": 66549, "name": "SHIJIAN-28", "group": "last-30-days", "lat": 7.168019043531082, "lon": -56.72724478582379, "alt_km": 25607.20554752555, "timestamp": "2025-12-03T22:42:31.476426+00:00", "meta": {"OBJECT_NAME": "SHIJIAN-28", "OBJECT_ID": "2025-277A", "EPOCH": "2025-11-30T18:06:43.124256", "MEAN_MOTION": 2.28019775, "ECCENTRICITY": 0.7300519, "INCLINATION": 14.4344, "RA_OF_ASC_NODE": 275.4056, "ARG_OF_PERICENTER": 179.5026, "MEAN_ANOMALY": 182.358, "EPHEMERIS_TYPE": 0, "CLASSIFICATION_TYPE": "U", "NORAD_CAT_ID": 66549, "ELEMENT_SET_NO": 999, "REV_AT_EPOCH": 4, "BSTAR": 0.00062085, "MEAN_MOTION_DOT": 6.315e-05, "MEAN_MOTION_DDOT": 0}, "tle": {"line1": "1 66549U 25277A   25334.75466579  .00006315  00000+0  62085-3 0  9997", "line2": "2 66549  14.4344 275.4056 7300519 179.5026 182.3580  2.28019775    48"}}, "geometry": {"type": "Point", "coordinates": [-56.72724478582379, 7.168019043531082]}}, {"type": "Feature", "properties": {"norad_id": 66550, "name": "CZ-7A R/B", "group": "last-30-days", "lat": -7.225094436343069, "lon": -115.29157275429921, "alt_km": 23110.08431424282, "timestamp": "2025-12-03T22:42:31.476437+00:00", "meta": {"OBJECT_NAME": "CZ-7A R/B", "OBJECT_ID": "2025-277B", "EPOCH": "2025-12-01T03:57:29.558880", "MEAN_MOTION": 2.40161271, "ECCENTRICITY": 0.72362879, "INCLINATION": 14.4278, "RA_OF_ASC_NODE": 275.378, "ARG_OF_PERICENTER": 178.5774, "MEAN_ANOMALY": 186.2906, "EPHEMERIS_TYPE": 0, "CLASSIFICATION_TYPE": "U", "NORAD_CAT_ID": 66550, "ELEMENT_SET_NO": 999, "REV_AT_EPOCH": 5, "BSTAR": 4.4603974e-05, "MEAN_MOTION_DOT": 0.00016399, "MEAN_MOTION_DDOT": -7.1945e-08}, "tle": {"line1": "1 66550U 25277B   25335.16492545  .00016399 -71945-7  44604-4 0  9993", "line2": "2 66550  14.4278 275.3780 7236287 178.5774 186.2906  2.40161271    57"}}, "geometry": {"type": "Point", "coordinates": [-115.29157275429921, -7.225094436343069]}}, {"type": "Feature", "properties": {"norad_id": 66551, "name": "UNKNOWN", "group": "last-30-days", "lat": 9.15556252147712, "lon": 43.39017998588144, "alt_km": 322.4246557550123, "timestamp": "2025-12-03T22:42:31.476448+00:00", "meta": {"OBJECT_NAME": "UNKNOWN", "OBJECT_ID": "2025-271AE", "EPOCH": "2025-12-02T16:00:03.000096", "MEAN_MOTION": 15.87051116, "ECCENTRICITY": 7.17e-05, "INCLINATION": 53.1571, "RA_OF_ASC_NODE": 236.7807, "ARG_OF_PERICENTER": 110.7411, "MEAN_ANOMALY": 313.9012, "EPHEMERIS_TYPE": 0, "CLASSIFICATION_TYPE": "U", "NORAD_CAT_ID": 66551, "ELEMENT_SET_NO": 999, "REV_AT_EPOCH": 262, "BSTAR": -0.0074303, "MEAN_MOTION_DOT": -0.01709685, "MEAN_MOTION_DDOT": 0}, "tle": {"line1": "1 66551U 25271AE  25336.66670139 -.01709685  00000+0 -74303-2 0  9993", "line2": "2 66551  53.1571 236.7807 0000717 110.7411 313.9012 15.87051116  2624"}}, "geometry": {"type": "Point", "coordinates": [43.39017998588144, 9.15556252147712]}}, {"type": "Feature", "properties": {"norad_id": 66554, "name": "GLOBAL-33", "group": "last-30-days", "lat": 36.053157806796, "lon": -126.20633447199128, "alt_km": 468.4520078551859, "timestamp": "2025-12-03T22:42:31.476458+00:00", "meta": {"OBJECT_NAME": "GLOBAL-33", "OBJECT_ID": "2025-267A", "EPOCH": "2025-12-03T06:32:27.074976", "MEAN_MOTION": 15.3127627, "ECCENTRICITY": 0.00055287, "INCLINATION": 42.0184, "RA_OF_ASC_NODE": 111.6349, "ARG_OF_PERICENTER": 345.1412, "MEAN_ANOMALY": 14.9262, "EPHEMERIS_TYPE": 0, "CLASSIFICATION_TYPE": "U", "NORAD_CAT_ID": 66554, "ELEMENT_SET_NO": 999, "REV_AT_EPOCH": 195, "BSTAR": 0.00053931482, "MEAN_MOTION_DOT": 0.00016435, "MEAN_MOTION_DDOT": 0}, "tle": {"line1": "1 66554U 25267A   25337.27253559  .00016435  00000+0  53931-3 0  9998", "line2": "2 66554  42.0184 111.6349 0005528 345.1412  14.9262 15.31276270  1955"}}, "geometry": {"type": "Point", "coordinates": [-126.20633447199128, 36.053157806796]}}, {"type": "Feature", "properties": {"norad_id": 66555, "name": "ELECTRON KICK STAGE R/B", "group": "last-30-days", "lat": 18.46931739895889, "lon": -94.1089079340144, "alt_km": 471.1846083484861, "timestamp": "2025-12-03T22:42:31.476467+00:00", "meta": {"OBJECT_NAME": "ELECTRON KICK STAGE R/B", "OBJECT_ID": "2025-267B", "EPOCH": "2025-12-03T01:42:41.033664", "MEAN_MOTION": 15.32103317, "ECCENTRICITY": 0.00074177, "INCLINATION": 42.0171, "RA_OF_ASC_NODE": 112.7243, "ARG_OF_PERICENTER": 343.2499, "MEAN_ANOMALY": 16.8092, "EPHEMERIS_TYPE": 0, "CLASSIFICATION_TYPE": "U", "NORAD_CAT_ID": 66555, "ELEMENT_SET_NO": 999, "REV_AT_EPOCH": 192, "BSTAR": 0.00097714165, "MEAN_MOTION_DOT": 0.00030845, "MEAN_MOTION_DDOT": 0}, "tle": {"line1": "1 66555U 25267B   25337.07130826  .00030845  00000+0  97714-3 0  9996", "line2": "2 66555  42.0171 112.7243 0007417 343.2499  16.8092 15.32103317  1921"}}, "geometry": {"type": "Point", "coordinates": [-94.1089079340144, 18.46931739895889]}}, {"type": "Feature", "properties": {"norad_id": 66557, "name": "STARLINK-35699", "group": "last-30-days", "lat": 34.41727172012791, "lon": -139.51046427657397, "alt_km": 345.1597376749669, "timestamp": "2025-12-03T22:42:31.476476+00:00", "meta": {"OBJECT_NAME": "STARLINK-35699", "OBJECT_ID": "2025-268A", "EPOCH": "2025-12-03T12:00:02.998944", "MEAN_MOTION": 15.7507203, "ECCENTRICITY": 0.0001676, "INCLINATION": 42.9988, "RA_OF_ASC_NODE": 175.8601, "ARG_OF_PERICENTER": 277.6275, "MEAN_ANOMALY": 126.9579, "EPHEMERIS_TYPE": 0, "CLASSIFICATION_TYPE": "U", "NORAD_CAT_ID": 66557, "ELEMENT_SET_NO": 999, "REV_AT_EPOCH": 318, "BSTAR": -0.014, "MEAN_MOTION_DOT": -0.01876827, "MEAN_MOTION_DDOT": 0}, "tle": {"line1": "1 66557U 25268A   25337.50003471 -.01876827  00000+0 -14000-1 0  9998", "line2": "2 66557  42.9988 175.8601 0001676 277.6275 126.9579 15.75072030  3186"}}, "geometry": {"type": "Point", "coordinates": [-139.51046427657397, 34.41727172012791]}}, {"type": "Feature", "properties": {"norad_id": 66558, "name": "STARLINK-35695", "group": "last-30-days", "lat": 35.28604777777385, "lon": -137.43098901241203, "alt_km": 345.072097741755, "timestamp": "2025-12-03T22:42:31.476488+00:00", "meta": {"OBJECT_NAME": "STARLINK-35695", "OBJECT_ID": "2025-268B", "EPOCH": "2025-12-03T12:00:02.998944", "MEAN_MOTION": 15.75068829, "ECCENTRICITY": 0.0001701, "INCLINATION": 42.9989, "RA_OF_ASC_NODE": 175.8553, "ARG_OF_PERICENTER": 276.8687, "MEAN_ANOMALY": 129.6333, "EPHEMERIS_TYPE": 0, "CLASSIFICATION_TYPE": "U", "NORAD_CAT_ID": 66558, "ELEMENT_SET_NO": 999, "REV_AT_EPOCH": 318, "BSTAR": -0.013952, "MEAN_MOTION_DOT": -0.01871044, "MEAN_MOTION_DDOT": 0}, "tle": {"line1": "1 66558U 25268B   25337.50003471 -.01871044  00000+0 -13952-1 0  9990", "line2": "2 66558  42.9989 175.8553 0001701 276.8687 129.6333 15.75068829  3180"}}, "geometry": {"type": "Point", "coordinates": [-137.43098901241203, 35.28604777777385]}}, {"type": "Feature", "properties": {"norad_id": 66559, "name": "STARLINK-35419", "group": "last-30-days", "lat": 36.11924435818894, "lon": -135.30415802113237, "alt_km": 345.0733453659923, "timestamp": "2025-12-03T22:42:31.476497+00:00", "meta": {"OBJECT_NAME": "STARLINK-35419", "OBJECT_ID": "2025-268C", "EPOCH": "2025-12-03T12:00:02.998944", "MEAN_MOTION": 15.75071158, "ECCENTRICITY": 0.0001832, "INCLINATION": 42.9989, "RA_OF_ASC_NODE": 175.8509, "ARG_OF_PERICENTER": 275.2042, "MEAN_ANOMALY": 133.2144, "EPHEMERIS_TYPE": 0, "CLASSIFICATION_TYPE": "U", "NORAD_CAT_ID": 66559, "ELEMENT_SET_NO": 999, "REV_AT_EPOCH": 318, "BSTAR": -0.013967, "MEAN_MOTION_DOT": -0.01873003, "MEAN_MOTION_DDOT": 0}, "tle": {"line1": "1 66559U 25268C   25337.50003471 -.01873003  00000+0 -13967-1 0  9994", "line2": "2 66559  42.9989 175.8509 0001832 275.2042 133.2144 15.75071158  3185"}}, "geometry": {"type": "Point", "coordinates": [-135.30415802113237, 36.11924435818894]}}, {"type": "Feature", "properties": {"norad_id": 66560, "name": "STARLINK-35411", "group": "last-30-days", "lat": 36.91220485612308, "lon": -133.1382358094003, "alt_km": 345.02233720566346, "timestamp": "2025-12-03T22:42:31.476506+00:00", "meta": {"OBJECT_NAME": "STARLINK-35411", "OBJECT_ID": "2025-268D", "EPOCH": "2025-12-03T12:00:02.998944", "MEAN_MOTION": 15.75065962, "ECCENTRICITY": 0.0001761, "INCLINATION": 42.999, "RA_OF_ASC_NODE": 175.846, "ARG_OF_PERICENTER": 270.5343, "MEAN_ANOMALY": 139.8073, "EPHEMERIS_TYPE": 0, "CLASSIFICATION_TYPE": "U", "NORAD_CAT_ID": 66560, "ELEMENT_SET_NO": 999, "REV_AT_EPOCH": 318, "BSTAR": -0.013947, "MEAN_MOTION_DOT": -0.01870327, "MEAN_MOTION_DDOT": 0}, "tle": {"line1": "1 66560U 25268D   25337.50003471 -.01870327  00000+0 -13947-1 0  9990", "line2": "2 66560  42.9990 175.8460 0001761 270.5343 139.8073 15.75065962  3187"}}, "geometry": {"type": "Point", "coordinates": [-133.1382358094003, 36.91220485612308]}}, {"type": "Feature", "properties": {"norad_id": 66561, "name": "STARLINK-35305", "group": "last-30-days", "lat": 38.374719543609174, "lon": -128.67462451916091, "alt_km": 344.87447863328725, "timestamp": "2025-12-03T22:42:31.476516+00:00", "meta": {"OBJECT_NAME": "STARLINK-35305", "OBJECT_ID": "2025-268E", "EPOCH": "2025-12-03T12:00:02.998944", "MEAN_MOTION": 15.75063228, "ECCENTRICITY": 0.0001681, "INCLINATION": 42.999, "RA_OF_ASC_NODE": 175.8362, "ARG_OF_PERICENTER": 261.0907, "MEAN_ANOMALY": 153.0814, "EPHEMERIS_TYPE": 0, "CLASSIFICATION_TYPE": "U", "NORAD_CAT_ID": 66561, "ELEMENT_SET_NO": 999, "REV_AT_EPOCH": 313, "BSTAR": -0.013884, "MEAN_MOTION_DOT": -0.01862669, "MEAN_MOTION_DDOT": 0}, "tle": {"line1": "1 66561U 25268E   25337.50003471 -.01862669  00000+0 -13884-1 0  9991", "line2": "2 66561  42.9990 175.8362 0001681 261.0907 153.0814 15.75063228  3130"}}, "geometry": {"type": "Point", "coordinates": [-128.67462451916091, 38.374719543609174]}}]}